NORAD_CAT_ID,OBJECT_NAME,OBJECT_TYPE,EPOCH,MEAN_MOTION,ECCENTRICITY,INCLINATION,RA_OF_ASC_NODE,ARG_OF_PERICENTER,MEAN_ANOMALY,BSTAR,MEAN_MOTION_DOT,MEAN_MOTION_DDOT,TLE_LINE0,TLE_LINE1,TLE_LINE2,SEMIMAJOR_AXIS,PERIOD,APOGEE,PERIGEE,DECAYED
51960.0,STARLINK-3691,PAYLOAD,2023-03-27 00:01:55,15.04814422,9.68e-05,53.1963,192.1527,105.038,255.0718,-0.00010004,-1.704e-05,0.0,0 STARLINK-3691,1 51960U 22025E   23086.00134247 -.00001704  00000-0 -10004-3 0  9994,2 51960  53.1963 192.1527 0000968 105.0380 255.0718 15.04814422 59437,6930.212,95.693,552.748,551.407,0.0
51960.0,STARLINK-3691,PAYLOAD,2023-03-27 14:22:42,15.04818556,0.0001335,53.1955,189.4847,95.8821,264.2321,0.00052796,7.267e-05,0.0,0 STARLINK-3691,1 51960U 22025E   23086.59910155  .00007267  00000-0  52796-3 0  9990,2 51960  53.1955 189.4847 0001335  95.8821 264.2321 15.04818556 58430,6930.2,95.693,552.99,551.14,0.0
51960.0,STARLINK-3691,PAYLOAD,2023-03-28 06:19:08,15.04781682,9.68e-05,53.1944,186.5224,72.6219,287.4877,-6.8825e-05,-1.258e-05,0.0,0 STARLINK-3691,1 51960U 22025E   23087.26329067 -.00001258  00000-0 -68825-4 0  9998,2 51960  53.1944 186.5224 0000968  72.6219 287.4877 15.04781682 59624,6930.313,95.695,552.849,551.507,0.0
51960.0,STARLINK-3691,PAYLOAD,2023-03-28 11:06:04,15.04789143,0.0001247,53.1943,185.6317,70.7184,289.3941,0.00042023,5.722e-05,0.0,0 STARLINK-3691,1 51960U 22025E   23087.46254693  .00005722  00000-0  42023-3 0  9991,2 51960  53.1943 185.6317 0001247  70.7184 289.3941 15.04789143 58562,6930.29,95.694,553.019,551.291,0.0
51960.0,STARLINK-3691,PAYLOAD,2023-03-29 12:36:20,15.04801841,0.000153,53.1918,180.8863,84.2168,275.8996,0.00088797,0.00012414,0.0,0 STARLINK-3691,1 51960U 22025E   23088.52524114  .00012414  00000-0  88797-3 0  9991,2 51960  53.1918 180.8863 0001530  84.2168 275.8996 15.04801841 59813,6930.251,95.694,553.176,551.056,0.0
51960.0,STARLINK-3691,PAYLOAD,2023-03-29 17:23:15,15.04817765,0.0001173,53.1915,179.9946,84.5476,275.5648,0.0013248,0.00018683,0.0,0 STARLINK-3691,1 51960U 22025E   23088.72449033  .00018683  00000-0  13248-2 0  9991,2 51960  53.1915 179.9946 0001173  84.5476 275.5648 15.04817765 59845,6930.202,95.693,552.88,551.254,0.0
51960.0,STARLINK-3691,PAYLOAD,2023-03-30 06:08:25,15.04768379,0.0001232,53.1916,177.6268,67.1322,292.9798,-0.00050274,-7.435e-05,0.0,0 STARLINK-3691,1 51960U 22025E   23089.25585078 -.00007435  00000-0 -50274-3 0  9996,2 51960  53.1916 177.6268 0001232  67.1322 292.9798 15.04768379 59925,6930.354,95.696,553.073,551.365,0.0
51960.0,STARLINK-3691,PAYLOAD,2023-03-30 12:30:59,15.0478019,0.0001348,53.1893,176.4394,91.1908,268.9236,0.000397,5.388e-05,0.0,0 STARLINK-3691,1 51960U 22025E   23089.52152519  .00005388  00000-0  39700-3 0  9990,2 51960  53.1893 176.4394 0001348  91.1908 268.9236 15.04780190 59960,6930.317,95.695,553.117,551.248,0.0
51960.0,STARLINK-3691,PAYLOAD,2023-03-30 17:17:55,15.04791876,0.0001734,53.1902,175.5485,104.7796,255.3386,0.0014627,0.00020648,0.0,0 STARLINK-3691,1 51960U 22025E   23089.72078125  .00020648  00000-0  14627-2 0  9998,2 51960  53.1902 175.5485 0001734 104.7796 255.3386 15.04791876 58909,6930.282,95.694,553.348,550.945,0.0
51960.0,STARLINK-3691,PAYLOAD,2023-03-31 06:03:04,15.04784884,0.0001417,53.1902,173.1783,99.0045,261.1106,0.0016155,0.00022836,0.0,0 STARLINK-3691,1 51960U 22025E   23090.25213745  .00022836  00000-0  16155-2 0  9996,2 51960  53.1902 173.1783 0001417  99.0045 261.1106 15.04784884 60072,6930.303,95.695,553.15,551.186,0.0
51960.0,STARLINK-3691,PAYLOAD,2023-03-31 20:23:52,15.04766785,0.0002162,53.1895,170.511,50.657,309.4611,-7.9076e-05,-1.404e-05,0.0,0 STARLINK-3691,1 51960U 22025E   23090.84990940 -.00001404  00000-0 -79076-4 0  9993,2 51960  53.1895 170.5110 0002162  50.6570 309.4611 15.04766785 60169,6930.359,95.696,553.722,550.725,0.0
51960.0,STARLINK-3691,PAYLOAD,2023-04-01 12:20:17,15.04780183,0.0001482,53.1868,167.5448,95.4519,264.664,0.0016416,0.00023208,0.0,0 STARLINK-3691,1 51960U 22025E   23091.51409614  .00023208  00000-0  16416-2 0  9992,2 51960  53.1868 167.5448 0001482  95.4519 264.6640 15.04780183 59174,6930.318,95.695,553.21,551.155,0.0
51960.0,STARLINK-3691,PAYLOAD,2023-04-01 13:55:56,15.04779948,0.0001469,53.1864,167.2482,92.4674,267.6484,0.0017267,0.00024429,0.0,0 STARLINK-3691,1 51960U 22025E   23091.58051563  .00024429  00000-0  17267-2 0  9996,2 51960  53.1864 167.2482 0001469  92.4674 267.6484 15.04779948 60278,6930.318,95.695,553.201,551.165,0.0
51960.0,STARLINK-3691,PAYLOAD,2023-04-02 05:52:22,15.04793829,0.0001746,53.1868,164.2831,98.4448,261.674,0.0015135,0.00021378,0.0,0 STARLINK-3691,1 51960U 22025E   23092.24470372  .00021378  00000-0  15135-2 0  9995,2 51960  53.1868 164.2831 0001746  98.4448 261.6740 15.04793829 60374,6930.276,95.694,553.351,550.931,0.0
51960.0,STARLINK-3691,PAYLOAD,2023-04-02 12:14:56,15.04798841,0.0001576,53.1856,163.0971,84.6914,275.4255,0.0013593,0.00019168,0.0,0 STARLINK-3691,1 51960U 22025E   23092.51037669  .00019168  00000-0  13593-2 0  9993,2 51960  53.1856 163.0971 0001576  84.6914 275.4255 15.04798841 59325,6930.26,95.694,553.217,551.033,0.0
51960.0,STARLINK-3691,PAYLOAD,2023-04-02 21:48:48,15.04784436,0.0001876,53.1865,161.3195,69.9035,290.2157,0.00077104,0.00010735,0.0,0 STARLINK-3691,1 51960U 22025E   23092.90889199  .00010735  00000-0  77104-3 0  9999,2 51960  53.1865 161.3195 0001876  69.9035 290.2157 15.04784436 59384,6930.304,95.695,553.47,550.869,0.0
51960.0,STARLINK-3691,PAYLOAD,2023-04-03 10:33:57,15.04774413,0.0001966,53.186,158.9447,77.813,282.308,0.00015511,1.935e-05,0.0,0 STARLINK-3691,1 51960U 22025E   23093.44024556  .00001935  00000-0  15511-3 0  9993,2 51960  53.1860 158.9447 0001966  77.8130 282.3080 15.04774413 60557,6930.335,95.695,553.563,550.838,0.0
51960.0,STARLINK-3691,PAYLOAD,2023-04-03 13:45:14,15.04776391,0.0001904,53.1859,158.3511,78.6982,281.4222,0.0001525,1.898e-05,0.0,0 STARLINK-3691,1 51960U 22025E   23093.57308334  .00001898  00000-0  15250-3 0  9994,2 51960  53.1859 158.3511 0001904  78.6982 281.4222 15.04776391 59482,6930.329,95.695,553.514,550.875,0.0
51960.0,STARLINK-3691,PAYLOAD,2023-04-04 10:28:35,15.04806467,0.0001679,53.1834,154.4968,73.0179,287.0995,0.0011014,0.00015474,0.0,0 STARLINK-3691,1 51960U 22025E   23094.43651770  .00015474  00000-0  11014-2 0  9993,2 51960  53.1834 154.4968 0001679  73.0179 287.0995 15.04806467 60708,6930.237,95.693,553.265,550.938,0.0
51960.0,STARLINK-3691,PAYLOAD,2023-04-04 15:15:30,15.04814823,0.000167,53.1826,153.6068,73.473,286.6443,0.0011667,0.00016413,0.0,0 STARLINK-3691,1 51960U 22025E   23094.63576931  .00016413  00000-0  11667-2 0  9998,2 51960  53.1826 153.6068 0001670  73.4730 286.6443 15.04814823 59648,6930.211,95.693,553.234,550.919,0.0
51960.0,STARLINK-3691,PAYLOAD,2023-04-05 04:00:39,15.04776059,0.0001273,53.1828,151.2351,77.6087,282.5045,-0.00028565,-4.347e-05,0.0,0 STARLINK-3691,1 51960U 22025E   23095.16712497 -.00004347  00000-0 -28565-3 0  9997,2 51960  53.1828 151.2351 0001273  77.6087 282.5045 15.04776059 60811,6930.33,95.695,553.077,551.313,0.0
51960.0,STARLINK-3691,PAYLOAD,2023-04-05 08:47:35,15.04779819,0.000148,53.1819,150.3454,84.0282,276.0877,0.00014149,1.741e-05,0.0,0 STARLINK-3691,1 51960U 22025E   23095.36638201  .00001741  00000-0  14149-3 0  9995,2 51960  53.1819 150.3454 0001480  84.0282 276.0877 15.04779819 59753,6930.319,95.695,553.209,551.158,0.0
51960.0,STARLINK-3691,PAYLOAD,2023-04-06 08:42:14,15.04794227,0.0001419,53.1807,145.8978,84.7612,275.3539,0.00099529,0.00013948,0.0,0 STARLINK-3691,1 51960U 22025E   23096.36266410  .00013948  00000-0  99529-3 0  9992,2 51960  53.1807 145.8978 0001419  84.7612 275.3539 15.04794227 60991,6930.274,95.694,553.123,551.156,0.0
51960.0,STARLINK-3691,PAYLOAD,2023-04-06 15:04:48,15.04798956,0.0001392,53.1798,144.7096,89.4192,270.6957,0.00084373,0.0001178,0.0,0 STARLINK-3691,1 51960U 22025E   23096.62833545  .00011780  00000-0  84373-3 0  9993,2 51960  53.1798 144.7096 0001392  89.4192 270.6957 15.04798956 59942,6930.26,95.694,553.09,551.16,0.0
51960.0,STARLINK-3691,PAYLOAD,2023-04-07 07:01:14,15.04789051,0.0001313,53.1774,141.7462,80.0215,280.0923,0.00032976,4.429e-05,0.0,0 STARLINK-3691,1 51960U 22025E   23097.29252362  .00004429  00000-0  32976-3 0  9993,2 51960  53.1774 141.7462 0001313  80.0215 280.0923 15.04789051 61134,6930.29,95.694,553.065,551.245,0.0
51960.0,STARLINK-3691,PAYLOAD,2023-04-07 11:48:09,15.04790528,0.0001301,53.1769,140.8562,85.1572,274.9567,0.00062378,8.631e-05,0.0,0 STARLINK-3691,1 51960U 22025E   23097.49177929  .00008631  00000-0  62378-3 0  9998,2 51960  53.1769 140.8562 0001301  85.1572 274.9567 15.04790528 60077,6930.286,95.694,553.052,551.249,0.0
51960.0,STARLINK-3691,PAYLOAD,2023-04-08 05:20:14,15.04781588,0.0001885,53.1762,137.5977,86.3159,273.8046,-3.1462e-05,-7.26e-06,0.0,0 STARLINK-3691,1 51960U 22025E   23098.22239099 -.00000726  00000-0 -31462-4 0  9997,2 51960  53.1762 137.5977 0001885  86.3159 273.8046 15.04781588 61273,6930.313,95.695,553.485,550.872,0.0
51960.0,STARLINK-3691,PAYLOAD,2023-04-08 11:42:48,15.04778924,0.0001539,53.1764,136.4082,92.5634,267.5532,-1.3879e-06,-2.97e-06,0.0,0 STARLINK-3691,1 51960U 22025E   23098.48806555 -.00000297  00000-0 -13879-5 0  9998,2 51960  53.1764 136.4082 0001539  92.5634 267.5532 15.04778924 60227,6930.321,95.695,553.253,551.12,0.0
51960.0,STARLINK-3691,PAYLOAD,2023-04-09 11:37:27,15.04789843,0.0001472,53.1753,131.959,84.1682,275.9475,0.0002491,3.278e-05,0.0,0 STARLINK-3691,1 51960U 22025E   23099.48434239  .00003278  00000-0  24910-3 0  9991,2 51960  53.1753 131.9590 0001472  84.1682 275.9475 15.04789843 61463,6930.288,95.694,553.173,551.133,0.0
51960.0,STARLINK-3691,PAYLOAD,2023-04-09 19:35:40,15.04775058,0.0002005,53.175,130.4767,75.8122,284.309,7.1413e-05,7.41e-06,0.0,0 STARLINK-3691,1 51960U 22025E   23099.81644541  .00000741  00000-0  71413-4 0  9990,2 51960  53.1750 130.4767 0002005  75.8122 284.3090 15.04775058 61515,6930.333,95.695,553.588,550.809,0.0
